{
"type": "FeatureCollection",
"name": "merge_poi",
"crs": { "type": "name", "properties": { "name": "urn:ogc:def:crs:OGC:1.3:CRS84" } },
"features": [
{ "type": "Feature", "properties": { "name": "オープンラボ", "_prop_id": "fac_open_labo", "category": "アカデミー施設", "id": 0, "subcategory": null, "established_year": null, "alias": null, "name_kana": "おーぷんらぼ" }, "geometry": { "type": "Point", "coordinates": [ 136.919451220120948, 35.553369893337134 ] } },
{ "type": "Feature", "properties": { "name": "加工棟", "_prop_id": "fac_kakoutou", "category": "アカデミー施設", "id": 1, "subcategory": null, "established_year": null, "alias": null, "name_kana": "かこうとう" }, "geometry": { "type": "Point", "coordinates": [ 136.919308056362695, 35.553667048448261 ] } },
{ "type": "Feature", "properties": { "name": "製材棟", "_prop_id": "fac_seizaitou", "category": "アカデミー施設", "id": 2, "subcategory": null, "established_year": null, "alias": null, "name_kana": "せいざいとう" }, "geometry": { "type": "Point", "coordinates": [ 136.919152257125063, 35.553387339755709 ] } },
{ "type": "Feature", "properties": { "name": "研修棟", "_prop_id": null, "category": "アカデミー施設", "id": 3, "subcategory": null, "established_year": null, "alias": null, "name_kana": "けんしゅうとう" }, "geometry": { "type": "Point", "coordinates": [ 136.918921657502665, 35.553772227447602 ] } },
{ "type": "Feature", "properties": { "name": "テクニカルセンターA", "_prop_id": "fac_tech_a", "category": "アカデミー施設", "id": 4, "subcategory": "専修学校校舎", "established_year": null, "alias": "テクニカルセンター", "name_kana": "てくにかるせんたーえー" }, "geometry": { "type": "Point", "coordinates": [ 136.918880495172914, 35.554250781087838 ] } },
{ "type": "Feature", "properties": { "name": "テクニカルセンターB", "_prop_id": "fac_tech_b", "category": "アカデミー施設", "id": 5, "subcategory": "専修学校校舎", "established_year": null, "alias": "テクニカルセンター", "name_kana": "てくにかるせんたーびー" }, "geometry": { "type": "Point", "coordinates": [ 136.918964474869966, 35.554490148929887 ] } },
{ "type": "Feature", "properties": { "name": "森林総合教育センター(morinos)", "_prop_id": "fac_morinos", "category": "アカデミー施設", "id": 6, "subcategory": "センターハウス", "established_year": null, "alias": "森林総合教育センター・センターハウス", "name_kana": "もりのす" }, "geometry": { "type": "Point", "coordinates": [ 136.919494578641405, 35.554008589225468 ] } },
{ "type": "Feature", "properties": { "name": "森の情報センター", "_prop_id": "fac_information", "category": "アカデミー施設", "id": 7, "subcategory": "専修学校校舎", "established_year": null, "alias": "森の情報センター", "name_kana": "もりのじょうほうせんたー" }, "geometry": { "type": "Point", "coordinates": [ 136.9195666213067, 35.554178526108558 ] } },
{ "type": "Feature", "properties": { "name": "森の工房", "_prop_id": "fac_koubou", "category": "アカデミー施設", "id": 8, "subcategory": "専修学校校舎", "established_year": null, "alias": "森の工房", "name_kana": "もりのこうぼう" }, "geometry": { "type": "Point", "coordinates": [ 136.919892364815894, 35.554096680514384 ] } },
{ "type": "Feature", "properties": { "name": "車庫", "_prop_id": null, "category": "アカデミー施設", "id": 9, "subcategory": "車庫", "established_year": null, "alias": "車庫", "name_kana": "しゃこ" }, "geometry": { "type": "Point", "coordinates": [ 136.919352059308721, 35.555681285899944 ] } },
{ "type": "Feature", "properties": { "name": "森のコテージ", "_prop_id": "fac_cottage", "category": "アカデミー施設", "id": 10, "subcategory": "寄宿舎", "established_year": null, "alias": "森のコテージ", "name_kana": "もりのこてーじ" }, "geometry": { "type": "Point", "coordinates": [ 136.919007069695851, 35.55491252202723 ] } },
{ "type": "Feature", "properties": { "name": "メディアラボ、フォレストラボ", "_prop_id": "fac_forest_labo", "category": "アカデミー施設", "id": 11, "subcategory": "専修学校校舎", "established_year": null, "alias": "マルチメディア実習棟", "name_kana": "めでぃあらぼ、ふぉれすとらぼ" }, "geometry": { "type": "Point", "coordinates": [ 136.918565866815158, 35.555758693365959 ] } },
{ "type": "Feature", "properties": { "name": "ウッドラボ", "_prop_id": "fac_wood_labo", "category": "アカデミー施設", "id": 12, "subcategory": "専修学校校舎", "established_year": null, "alias": "アトリエ", "name_kana": "うっどらぼ" }, "geometry": { "type": "Point", "coordinates": [ 136.917646220177716, 35.555688932749476 ] } },
{ "type": "Feature", "properties": { "name": "アカデミーセンター", "_prop_id": "fac_center", "category": "アカデミー施設", "id": 13, "subcategory": "専修学校事務所", "established_year": null, "alias": "アカデミーセンター", "name_kana": "あかでみーせんたー" }, "geometry": { "type": "Point", "coordinates": [ 136.917792623262017, 35.555336104820199 ] } },
{ "type": "Feature", "properties": { "name": "林業機械学習棟", "_prop_id": "fac_ringyoukikaitou", "category": "アカデミー施設", "id": 14, "subcategory": "車庫", "established_year": null, "alias": "高性能林業機械車庫", "name_kana": "りんぎょうきかいがくしゅうとう" }, "geometry": { "type": "Point", "coordinates": [ 136.917921868076604, 35.554004958346418 ] } },
{ "type": "Feature", "properties": { "name": "屏風岩", "_prop_id": "heihuuiwa", "category": "演習林", "id": 15, "subcategory": "岩", "established_year": null, "alias": null, "name_kana": "へいふういわ" }, "geometry": { "type": "Point", "coordinates": [ 136.925213, 35.548385 ] } },
{ "type": "Feature", "properties": { "name": "青樹滝", "_prop_id": "aozyutaki", "category": "演習林", "id": 16, "subcategory": "滝", "established_year": null, "alias": null, "name_kana": "あおじゅたき" }, "geometry": { "type": "Point", "coordinates": [ 136.923228, 35.549236 ] } },
{ "type": "Feature", "properties": { "name": "昼飯岩", "_prop_id": "hirumesiiwa", "category": "演習林", "id": 17, "subcategory": "岩", "established_year": null, "alias": null, "name_kana": "ひるめしいわ" }, "geometry": { "type": "Point", "coordinates": [ 136.922616, 35.548532 ] } },
{ "type": "Feature", "properties": { "name": "馬の背岩", "_prop_id": "umanoseiwa", "category": "演習林", "id": 18, "subcategory": "岩", "established_year": null, "alias": null, "name_kana": "うまのせいわ" }, "geometry": { "type": "Point", "coordinates": [ 136.923477, 35.551817 ] } },
{ "type": "Feature", "properties": { "name": "眺の岩", "_prop_id": "nagamenoiwa", "category": "演習林", "id": 19, "subcategory": "岩", "established_year": null, "alias": null, "name_kana": "ながめのいわ" }, "geometry": { "type": "Point", "coordinates": [ 136.923906, 35.551367 ] } },
{ "type": "Feature", "properties": { "name": "山の神", "_prop_id": "yamanokami", "category": "演習林", "id": 20, "subcategory": null, "established_year": null, "alias": null, "name_kana": "やまのかみ" }, "geometry": { "type": "Point", "coordinates": [ 136.923685, 35.55234 ] } },
{ "type": "Feature", "properties": { "name": "蛇尾滝", "_prop_id": "hebiotaki", "category": "演習林", "id": 21, "subcategory": "滝", "established_year": null, "alias": null, "name_kana": "へびおたき" }, "geometry": { "type": "Point", "coordinates": [ 136.923946, 35.552341 ] } },
{ "type": "Feature", "properties": { "name": "林道ゲート", "_prop_id": "gate_kokuyurin", "category": "演習林", "id": 22, "subcategory": "ゲート", "established_year": null, "alias": "国有林ゲート", "name_kana": "りんどうげーと" }, "geometry": { "type": "Point", "coordinates": [ 136.92401, 35.55462 ] } },
{ "type": "Feature", "properties": { "name": "紡木人", "_prop_id": "ziriki_25", "category": "自力建設", "id": 59, "subcategory": null, "established_year": 2025, "alias": null, "name_kana": "つむぎと" }, "geometry": { "type": "Point", "coordinates": [ 136.918144167100223, 35.553945344872339 ] } },
{ "type": "Feature", "properties": { "name": "毛鹿洞池", "_prop_id": "kezikaboraike", "category": "演習林", "id": 24, "subcategory": "池", "established_year": null, "alias": null, "name_kana": "けじかぼらいけ" }, "geometry": { "type": "Point", "coordinates": [ 136.922681, 35.555474 ] } },
{ "type": "Feature", "properties": { "name": "大杉", "_prop_id": "oosugi", "category": "演習林", "id": 25, "subcategory": null, "established_year": null, "alias": null, "name_kana": "おおすぎ" }, "geometry": { "type": "Point", "coordinates": [ 136.92288, 35.552971 ] } },
{ "type": "Feature", "properties": { "name": "森のいりぐち", "_prop_id": "morinoiriguti", "category": "演習林", "id": 27, "subcategory": null, "established_year": null, "alias": null, "name_kana": "もりのいりぐち" }, "geometry": { "type": "Point", "coordinates": [ 136.920382, 35.553815 ] } },
{ "type": "Feature", "properties": { "name": "岐阜県森林研究所", "_prop_id": null, "category": "施設", "id": 28, "subcategory": "施設", "established_year": null, "alias": null, "name_kana": "岐阜県森林研究所" }, "geometry": { "type": "Point", "coordinates": [ 136.920179699788406, 35.553436122622003 ] } },
{ "type": "Feature", "properties": { "name": "管理道ゲート", "_prop_id": "gate_ensyurin", "category": "演習林", "id": 29, "subcategory": "ゲート", "established_year": null, "alias": "チェーンゲート", "name_kana": "ちぇーんげーと" }, "geometry": { "type": "Point", "coordinates": [ 136.92001, 35.551472 ] } },
{ "type": "Feature", "properties": { "name": "炭焼き小屋", "_prop_id": "sumiyakigoya", "category": "演習林", "id": 30, "subcategory": null, "established_year": null, "alias": null, "name_kana": "すみやきごや" }, "geometry": { "type": "Point", "coordinates": [ 136.921202, 35.550254 ] } },
{ "type": "Feature", "properties": { "name": "見晴らし岩", "_prop_id": "miharasiiwa", "category": "演習林", "id": 32, "subcategory": "岩", "established_year": null, "alias": null, "name_kana": "みはらしいわ" }, "geometry": { "type": "Point", "coordinates": [ 136.920721, 35.548931 ] } },
{ "type": "Feature", "properties": { "name": "古城山ふれあいの森管理棟", "_prop_id": null, "category": "施設", "id": 34, "subcategory": "施設", "established_year": null, "alias": null, "name_kana": "こじょうさんふれあいのもりかんりとう" }, "geometry": { "type": "Point", "coordinates": [ 136.919012934460596, 35.548828997885828 ] } },
{ "type": "Feature", "properties": { "name": "SOMA’s Hut(ソマズハット)", "_prop_id": "ziriki_15", "category": "自力建設", "id": 35, "subcategory": null, "established_year": 2015, "alias": "", "name_kana": "そまずはっと" }, "geometry": { "type": "Point", "coordinates": [ 136.923254672222299, 35.55284719443177 ] } },
{ "type": "Feature", "properties": { "name": "森の中の四寸傘", "_prop_id": "ziriki_01", "category": "自力建設", "id": 36, "subcategory": null, "established_year": 2001, "alias": "", "name_kana": "もりのよんすんがさ" }, "geometry": { "type": "Point", "coordinates": [ 136.921303119802985, 35.552165704819075 ] } },
{ "type": "Feature", "properties": { "name": "こならのみち", "_prop_id": "ziriki_09", "category": "自力建設", "id": 37, "subcategory": "その他", "established_year": 2009, "alias": "こならのみち", "name_kana": "こならのみち" }, "geometry": { "type": "Point", "coordinates": [ 136.919224249151654, 35.554496996842751 ] } },
{ "type": "Feature", "properties": { "name": "森のインターチェンジ", "_prop_id": "ziriki_11", "category": "自力建設", "id": 38, "subcategory": "通路", "established_year": 2011, "alias": "森のインターチェンジ", "name_kana": "もりのいんたーちぇんじ" }, "geometry": { "type": "Point", "coordinates": [ 136.919127168383341, 35.554339802531338 ] } },
{ "type": "Feature", "properties": { "name": "Cobiki(こびき)", "_prop_id": "ziriki_19", "category": "自力建設", "id": 39, "subcategory": "その他", "established_year": 2019, "alias": "簡易製材小屋", "name_kana": "こびき" }, "geometry": { "type": "Point", "coordinates": [ 136.918435706747175, 35.554224969452243 ] } },
{ "type": "Feature", "properties": { "name": "みさきのちゃや", "_prop_id": "ziriki_02", "category": "自力建設", "id": 40, "subcategory": "その他", "established_year": 2002, "alias": "みさきのちゃや", "name_kana": "みさきのちゃや" }, "geometry": { "type": "Point", "coordinates": [ 136.918546521447183, 35.554932648050801 ] } },
{ "type": "Feature", "properties": { "name": "アラカシのだんだん", "_prop_id": "ziriki_10", "category": "自力建設", "id": 41, "subcategory": "その他", "established_year": 2010, "alias": "あらかしのだんだん", "name_kana": "あらかしのだんだん" }, "geometry": { "type": "Point", "coordinates": [ 136.918467131203499, 35.554975629711009 ] } },
{ "type": "Feature", "properties": { "name": "里山獣肉学舎", "_prop_id": "ziriki_17", "category": "自力建設", "id": 42, "subcategory": "その他", "established_year": 2017, "alias": "里山獣肉学舎", "name_kana": "さとやまじゅうにくがくしゃ" }, "geometry": { "type": "Point", "coordinates": [ 136.91905782286463, 35.556132473385809 ] } },
{ "type": "Feature", "properties": { "name": "ほとりの櫓", "_prop_id": "ziriki_23", "category": "自力建設", "id": 43, "subcategory": null, "established_year": 2023, "alias": null, "name_kana": null }, "geometry": { "type": "Point", "coordinates": [ 136.918379948926969, 35.555754388550561 ] } },
{ "type": "Feature", "properties": { "name": "ほたるの川床", "_prop_id": "ziriki_08", "category": "自力建設", "id": 44, "subcategory": null, "established_year": 2008, "alias": "", "name_kana": "ほたるのかわどこ" }, "geometry": { "type": "Point", "coordinates": [ 136.918656781631711, 35.555502646872029 ] } },
{ "type": "Feature", "properties": { "name": "みどりのアトリエ", "_prop_id": "ziriki_20", "category": "自力建設", "id": 45, "subcategory": null, "established_year": 2020, "alias": "", "name_kana": "みどりのあとりえ" }, "geometry": { "type": "Point", "coordinates": [ 136.918709805142299, 35.555509842128053 ] } },
{ "type": "Feature", "properties": { "name": "おうらいの茶の間", "_prop_id": "ziriki_13", "category": "自力建設", "id": 46, "subcategory": "通路", "established_year": 2013, "alias": "おうらいの茶の間", "name_kana": "おうらいのちゃのま" }, "geometry": { "type": "Point", "coordinates": [ 136.918113315440877, 35.555594292431074 ] } },
{ "type": "Feature", "properties": { "name": "桂の湯殿", "_prop_id": "ziriki_06", "category": "自力建設", "id": 47, "subcategory": "その他", "established_year": 2006, "alias": "桂の湯殿", "name_kana": "かつらのゆどの" }, "geometry": { "type": "Point", "coordinates": [ 136.918084422326956, 35.555830789012084 ] } },
{ "type": "Feature", "properties": { "name": "森のいちだんらく", "_prop_id": "ziriki_18", "category": "自力建設", "id": 48, "subcategory": null, "established_year": 2018, "alias": "", "name_kana": "もりのいちだんらく" }, "geometry": { "type": "Point", "coordinates": [ 136.918166397048736, 35.555849394379692 ] } },
{ "type": "Feature", "properties": { "name": "木立のこみち", "_prop_id": "ziriki_21", "category": "自力建設", "id": 49, "subcategory": null, "established_year": 2021, "alias": "", "name_kana": "こだちのこみち" }, "geometry": { "type": "Point", "coordinates": [ 136.917882626094524, 35.555665982565003 ] } },
{ "type": "Feature", "properties": { "name": "Switch(スイッチ)", "_prop_id": "ziriki_05", "category": "自力建設", "id": 50, "subcategory": "自転車置場", "established_year": 2005, "alias": "swich", "name_kana": "すいっち" }, "geometry": { "type": "Point", "coordinates": [ 136.917331068077857, 35.555748795367847 ] } },
{ "type": "Feature", "properties": { "name": "木漏れ日の塔", "_prop_id": "ziriki_12", "category": "自力建設", "id": 51, "subcategory": null, "established_year": 2012, "alias": "", "name_kana": "こもれびのとう" }, "geometry": { "type": "Point", "coordinates": [ 136.916694167743628, 35.555513979309644 ] } },
{ "type": "Feature", "properties": { "name": "森湊灯台", "_prop_id": "ziriki_14", "category": "自力建設", "id": 52, "subcategory": "その他", "established_year": 2014, "alias": "森湊灯台", "name_kana": "もりみなととうだい" }, "geometry": { "type": "Point", "coordinates": [ 136.918214615971095, 35.55476357425939 ] } },
{ "type": "Feature", "properties": { "name": "栞", "_prop_id": "ziriki_24", "category": "自力建設", "id": 53, "subcategory": null, "established_year": 2024, "alias": null, "name_kana": null }, "geometry": { "type": "Point", "coordinates": [ 136.917685368713791, 35.55397634181378 ] } },
{ "type": "Feature", "properties": { "name": "丁稚基地", "_prop_id": "ziriki_22", "category": "自力建設", "id": 54, "subcategory": null, "established_year": 2022, "alias": null, "name_kana": null }, "geometry": { "type": "Point", "coordinates": [ 136.917703461509859, 35.554063177581149 ] } },
{ "type": "Feature", "properties": { "name": "地空楼", "_prop_id": "ziriki_07", "category": "自力建設", "id": 55, "subcategory": "通路", "established_year": 2007, "alias": "地空楼", "name_kana": null }, "geometry": { "type": "Point", "coordinates": [ 136.917618570812039, 35.554045846428131 ] } },
{ "type": "Feature", "properties": { "name": "風の円居", "_prop_id": "ziriki_04", "category": "自力建設", "id": 56, "subcategory": "その他", "established_year": 2004, "alias": "風の円居", "name_kana": "かぜのまとい" }, "geometry": { "type": "Point", "coordinates": [ 136.919168726437022, 35.554105248840017 ] } },
{ "type": "Feature", "properties": { "name": "Oasis(オアシス)", "_prop_id": "ziriki_16", "category": "自力建設", "id": 57, "subcategory": "その他", "established_year": 2016, "alias": "オアシス", "name_kana": "おあしす" }, "geometry": { "type": "Point", "coordinates": [ 136.91978373396978, 35.553986704215568 ] } },
{ "type": "Feature", "properties": { "name": "活木処", "_prop_id": "ziriki_03", "category": "自力建設", "id": 58, "subcategory": "その他", "established_year": 2003, "alias": "活木処", "name_kana": null }, "geometry": { "type": "Point", "coordinates": [ 136.919631047986513, 35.553781047270256 ] } }
]
}
